#dP2018  9 20  0  0  0.00000000      96 __u+U IGS08 FIT  IAC
## 2019 345600.00000000   900.00000000 58381 0.0000000000000
+   90   C01C02C03C04C05C06C07C08C09C10C11C12C13C14E01E02E03
+        E04E05E07E08E09E11E12E14E18E19E21E24E25E26E27E30G01
+        G02G03G05G06G07G08G09G10G11G12G13G14G15G16G17G18G19
+        G20G21G22G23G24G25G26G27G28G29G30G31G32J01J02J03R01
+        R02R03R04R05R07R08R09R10R11R13R14R15R16R17R18R19R20
+        R21R22R23R24R26  0  0  0  0  0  0  0  0  0  0  0  0
++        12 12 12 13 12  9  8  8  8  8  8  8  8  7  7  7  7
++         7  7  7  7  7  7  7  7  7  7  8  7  7  7  7  7  3
++         3  3  3  3  3  5  5  3  3  3  3  3  3  3  3  3  3
++         3  3  3  3  3  3  3  3  3  3  3  3  3 12 11 12  6
++         5  8  5  5  5  5  5  5  5  5  5  5  5  5  7  5  5
++         5  5  5  5  8  0  0  0  0  0  0  0  0  0  0  0  0
%c M  cc GPS ccc cccc cccc cccc cccc ccccc ccccc ccccc ccccc
%c cc cc ccc ccc cccc cccc cccc cccc ccccc ccccc ccccc ccccc
%f  1.2500000  1.025000000  0.00000000000  0.000000000000000
%f  0.0000000  0.000000000  0.00000000000  0.000000000000000
%i    0    0    0    0      0      0      0      0         0
%i    0    0    0    0      0      0      0      0         0
/* INFORMATION & ANALYSIS CENTER (IAC)            FINAL DATA
/* S/V CLOCKS ARE ALIGNED TO GPS & GLONASS TIME RESPECTIVELY
/* USING THE BROADCAST EPHEMERIS                            
/* PCV:IGS14_2000 OL/AL:FES2004  NONE     YN ORB:CoN CLK:CoN
*  2018 09 20 14 15  0.00000000
PC01 -32337.427175  27087.905489   -293.606916    -27.483185
PC02   4312.877354  41918.648473   -526.952527     31.689729
PC03 -14732.223045  39480.068879   -896.002989   -403.304303
PC04 -39674.062815  14365.008401   -221.528603     67.481596
PC05  21948.955880  35996.922774   -507.932447    141.704580
PC06 -23902.116551  27470.750830  21244.290491    311.907439
PC07 -12078.483474  38481.615669  13257.038765      5.138527
PC08 -10000.603266  19867.330506 -35746.526521    533.114648
PC09  -9013.542710  27315.798934  30906.855605    130.384872
PC10  -3274.389051  42208.741221   2043.489721    -88.394350
PC11 -23409.272159   6750.246409 -13629.961192   -688.910015
PC12 -27071.930778  -5392.519776   4503.381187    618.893991
PC13   5063.883006  28367.852006 -30684.541919   -287.078554
PC14 -20192.223276  15871.944888 -10798.272478    435.229467
PE01  -8371.309885 -26520.565555  10127.596880   -438.930151
PE02   8380.779713  26514.170146 -10141.481303     28.163340
PE03   7112.054519  15763.937976  24026.267756    -79.246727
PE04 -22982.485150   -633.704779 -18638.749814   -121.257644
PE05 -12993.171281  21718.880963  15355.639615    190.627623
PE07  25442.743209 -14945.397212   2282.467266    -41.826906
PE08  22932.335948    321.136166  18710.609552   6498.981332
PE09 -25307.799925  15196.662999  -2289.720777   6671.167811
PE11 -21212.889646   4731.095834 -20099.972466   5238.002703
PE12 -27435.344141 -10455.526328  -3728.938960   5095.493338
PE14 -23372.246927  12557.674344 -11514.878631   6516.712386
PE18  28313.079249  -1921.203549  -1481.145358   5892.418876
PE19  -5134.846895 -16721.873710 -23874.593476    -12.072066
PE21   4247.061548 -27760.370186  -9328.933299   -495.584910
PE24 -14029.809192  13143.362255  22503.077447   6483.128693
PE25  -4271.923807  27763.480623   9367.581392   2036.655479
PE26   2944.094175 -16766.736995  24213.332023   5455.865029
PE27  14142.478193 -12451.268664 -22815.504571    627.282198
PE30  15840.295581   9481.372209 -23138.614409   5497.723848
PG01  20731.829852  10945.796421  12599.152056    -90.429012
PG02 -14109.934344 -21683.384246   7081.136056     -7.207199
PG03  15547.541753    870.671203  21475.807304    138.766755
PG05  -5864.372507 -20099.762752 -16336.080607     -1.773229
PG06   -544.497954 -19424.331354  18126.039921    361.002673
PG07  15932.465297  -3761.261958 -20762.958978    120.819549
PG08  19746.200434   7281.541061 -16251.076813   -115.795381
PG09  25500.053332  -7049.718683  -2418.400453    505.424604
PG10 -10985.824860  23759.723703  -3867.283614    180.702516
PG11  24653.507517   9102.026546   2433.737402   -716.520126
PG12 -12859.477357  -6990.468959  21979.712598    305.574527
PG13 -12218.887775 -12841.316126 -19894.627882    -88.784582
PG14  -4027.540022  15534.927175  21439.338302    -97.202747
PG15 -23104.692250  -3645.764115 -13171.156069   -345.376104
PG16   2059.777745  21179.451103 -15778.636286      8.114598
PG17  14309.553305 -13987.796696  17794.068971    -53.565118
PG18  19892.360897  17260.164084   3559.391264     59.394202
PG19   4174.703121 -14774.197025  21394.277216   -400.957474
PG20 -14176.474434  18187.350777 -13208.767542    516.094666
PG21 -12815.350717   8449.240760 -20878.429202   -334.038661
PG22  13683.156461   9532.451577  20912.130604   -524.587770
PG23  25959.495880   -376.128687   6870.165853   -210.462361
PG24 -21368.566350 -13554.974779   8434.149433    -55.649711
PG25 -16477.543321   8323.219613  18822.859964   -649.852846
PG26  -3560.516786  25489.225149  -6263.015956    -14.576768
PG27   9276.013910  12876.327557 -21426.579839    343.047605
PG28  13559.374996 -22159.780406  -5031.539062    745.481175
PG29 -26102.740754   4591.661642  -1773.814138    372.740210
PG30   8037.027801 -14279.919070 -20854.251767     21.424046
PG31   1773.398183  20480.120473  16609.775116     92.268028
PG32 -12872.338406  15211.397668  17556.803051   -418.039866
PJ01 -21858.952358  35594.712156  -1245.030884   -339.113194
PJ02 -24766.502020  22791.990894  29975.104407      0.025952
PJ03 -34570.237038  19421.862428  -9544.214404      0.082168
PR01  11810.513898   3420.962183  22346.548130     32.269548
PR02  19787.986391 -12788.802879   9874.134640    330.553632
PR03  14621.582210 -19457.082860  -7669.169362    143.746287
PR04    506.039309 -14498.047993 -20971.170140    276.902743
PR05 -13059.267276  -1527.579643 -21845.922783     11.095365
PR07 -14281.246511  19461.563619   8222.011280    -47.548753
PR08  -1082.100822  14881.777799  20736.900772     21.221613
PR09  -9922.053429   5842.273660  22785.633017     29.354501
PR10  -2091.190732  20593.591403  14955.451037     32.023310
PR11   7227.736344  24380.599608  -2311.572720    -41.460465
PR13   9765.715233  -5288.652643 -22972.574171    -14.873773
PR14   2198.712244 -20514.938321 -14966.470398     31.181410
PR15  -5113.947241 -24950.883591  -2106.692780    -16.605955
PR16 -12349.455669 -14413.077493  17084.388936    102.083013
PR17   8446.297642  -8405.245687  22550.860914    165.754676
PR18  -9647.359940 -12297.203187  20149.813976     24.973640
PR19 -22549.128759  -9992.205410   6522.927893    -59.690225
PR20 -22297.895766  -1066.999353 -12303.894446   -352.912964
PR21  -8052.526688   8482.210253 -22677.099546     -4.490567
PR22  11965.228083  12357.613930 -18886.540919    -62.977938
PR23  24117.634844   7992.021854  -2244.255843    179.420634
PR24  21775.505022     20.471245  13260.549012   -171.603909
PR26 -22954.325077  -1355.620068 -11066.560049     48.401682
EOF
